{"version": 0.6, "generator": "Overpass API 0.7.62.1 084b4234", "osm3s": {"timestamp_osm_base": "2024-06-07T04:11:57Z", "copyright": "The data included in this document is from www.openstreetmap.org. The data is made available under ODbL."}, "elements": [{"type": "node", "id": 2023937456, "lat": -12.092734, "lon": -77.072472, "tags": {"addr:city": "Magdalena del Mar", "addr:postcode": "15086", "addr:street": "Jir\u00f3n Grau", "amenity": "place_of_worship", "name": "Parroquia Sagrado Coraz\u00f3n de Jes\u00fas", "religion": "christian", "source": "http://www.arzobispadodelima.org/"}}, {"type": "node", "id": 2953315134, "lat": -12.0866795, "lon": -77.0690808}, {"type": "node", "id": 2953315135, "lat": -12.0867561, "lon": -77.0688683}, {"type": "node", "id": 2953315136, "lat": -12.0869067, "lon": -77.0687953}, {"type": "node", "id": 2953315137, "lat": -12.086993, "lon": -77.0691895}, {"type": "node", "id": 2953315138, "lat": -12.0871067, "lon": -77.0688671}, {"type": "node", "id": 2953403362, "lat": -12.0925831, "lon": -77.0736765}, {"type": "node", "id": 2953403363, "lat": -12.0927031, "lon": -77.0733275}, {"type": "node", "id": 2953403364, "lat": -12.0927273, "lon": -77.0733165}, {"type": "node", "id": 2953403365, "lat": -12.0929979, "lon": -77.0738257}, {"type": "node", "id": 2953403366, "lat": -12.0931239, "lon": -77.0734592}, {"type": "node", "id": 4139704899, "lat": -12.0927564, "lon": -77.0731384}, {"type": "node", "id": 4139704900, "lat": -12.0936225, "lon": -77.0734488}, {"type": "node", "id": 4139704901, "lat": -12.0939705, "lon": -77.0725393}, {"type": "node", "id": 4139704902, "lat": -12.0930502, "lon": -77.0722309}, {"type": "node", "id": 4143632588, "lat": -12.0878579, "lon": -77.0648956}, {"type": "node", "id": 4143633089, "lat": -12.0878317, "lon": -77.0648232}, {"type": "node", "id": 4143633090, "lat": -12.0878979, "lon": -77.0646543}, {"type": "node", "id": 4143633091, "lat": -12.0879772, "lon": -77.0647347}, {"type": "node", "id": 4143633092, "lat": -12.0880015, "lon": -77.0648179}, {"type": "node", "id": 4143633094, "lat": -12.0879749, "lon": -77.0649158}, {"type": "node", "id": 4143633289, "lat": -12.0972085, "lon": -77.0682658, "tags": {"addr:city": "Magdalena del Mar", "addr:street": "Bonnemaison", "amenity": "place_of_worship", "name": "Casa de Espiritualidad San Jos\u00e9 de Cluny", "religion": "christian"}}, {"type": "node", "id": 4341604469, "lat": -12.0879452, "lon": -77.064691}, {"type": "node", "id": 4341604470, "lat": -12.0879939, "lon": -77.0647762}, {"type": "node", "id": 4341604471, "lat": -12.0879955, "lon": -77.0648641}, {"type": "node", "id": 4341834276, "lat": -12.09273, "lon": -77.0611363}, {"type": "node", "id": 4341834277, "lat": -12.0929432, "lon": -77.0612176}, {"type": "node", "id": 4341834278, "lat": -12.0929798, "lon": -77.0610692}, {"type": "node", "id": 4341834279, "lat": -12.0926745, "lon": -77.0609363}, {"type": "node", "id": 4341834280, "lat": -12.0925864, "lon": -77.0611773}, {"type": "node", "id": 4341834281, "lat": -12.0926886, "lon": -77.061217}, {"type": "node", "id": 4347743543, "lat": -12.0929722, "lon": -77.0590404}, {"type": "node", "id": 4347743544, "lat": -12.093068, "lon": -77.0590579}, {"type": "node", "id": 4347743545, "lat": -12.0930719, "lon": -77.0590351}, {"type": "node", "id": 4347743546, "lat": -12.0932568, "lon": -77.0590686}, {"type": "node", "id": 4347743547, "lat": -12.0932791, "lon": -77.0589519}, {"type": "node", "id": 4347743548, "lat": -12.0931637, "lon": -77.0589278}, {"type": "node", "id": 4347743549, "lat": -12.0932017, "lon": -77.0587132}, {"type": "node", "id": 4347743550, "lat": -12.0931558, "lon": -77.0587159}, {"type": "node", "id": 4347743551, "lat": -12.0931152, "lon": -77.0587655}, {"type": "node", "id": 4347743552, "lat": -12.0930221, "lon": -77.0587521}, {"type": "node", "id": 4347774924, "lat": -12.0930215, "lon": -77.0676632}, {"type": "node", "id": 4347774925, "lat": -12.0929479, "lon": -77.0676385}, {"type": "node", "id": 4347774926, "lat": -12.0928789, "lon": -77.0678534}, {"type": "node", "id": 4347774927, "lat": -12.0929525, "lon": -77.0678781}, {"type": "node", "id": 4439807076, "lat": -12.0911589, "lon": -77.0748326, "tags": {"addr:city": "Magdalena del Mar", "addr:street": "Enrique Echenique", "amenity": "place_of_worship", "name": "Religiosas franciscana de Inmaculada Concepci\u00f3n", "religion": "christian"}}, {"type": "node", "id": 4750191722, "lat": -12.0866606, "lon": -77.0706671, "tags": {"amenity": "place_of_worship", "name": "iglesia Casa de Oraci\u00f3n", "name:es": "iglesia Casa de Oraci\u00f3n", "religion": "christian"}}, {"type": "node", "id": 5014775521, "lat": -12.0938102, "lon": -77.0721275, "tags": {"addr:city": "Magdalena del Mar", "addr:housenumber": "556", "addr:street": "Jir\u00f3n Tacna", "amenity": "place_of_worship", "name": "Centro isl\u00e1mico peru", "name:ar": "\u0645\u0631\u0643\u0632 \u0628\u064a\u0631\u0648 \u0627\u0644\u0627\u0633\u0644\u0627\u0645\u064a", "name:en": "Per\u00fa islamic center", "religion": "muslim"}}, {"type": "node", "id": 5757702538, "lat": -12.0977771, "lon": -77.0651034, "tags": {"amenity": "place_of_worship", "name": "Capilla", "religion": "christian"}}, {"type": "way", "id": 291821665, "nodes": [2953315135, 2953315136, 2953315138, 2953315137, 2953315134, 2953315135], "tags": {"alt_name": "Parroquia Inmaculado Coraz\u00f3n de Mar\u00eda", "amenity": "place_of_worship", "building": "church", "denomination": "catholic", "name": "Iglesia del Sagrado Coraz\u00f3n de Mar\u00eda", "religion": "christian", "wikidata": "Q5912829", "wikimedia_commons": "Category:Coraz\u00f3n de Mar\u00eda, Magdalena del Mar", "wikipedia": "es:Iglesia del Sagrado Coraz\u00f3n de Mar\u00eda (Lima)"}}, {"type": "way", "id": 291831411, "nodes": [2953403363, 2953403364, 2953403366, 2953403365, 2953403362, 2953403363], "tags": {"addr:city": "Magdalena del Mar", "addr:housenumber": "525", "addr:postcode": "15086", "addr:street": "Jir\u00f3n Grau", "amenity": "place_of_worship", "denomination": "catholic", "name": "Parroquia Sagrado Coraz\u00f3n de Jes\u00fas", "religion": "christian", "wheelchair": "limited", "wheelchair:description": "No ofrecen ba\u00f1os a nadie"}}, {"type": "way", "id": 412574718, "nodes": [4139704899, 4139704900, 4139704901, 4139704902, 4139704899], "tags": {"denomination": "catholic", "landuse": "religious", "name": "Seminario Salesiano", "religion": "christian"}}, {"type": "way", "id": 413035084, "nodes": [4143632588, 4143633089, 4143633090, 4341604469, 4143633091, 4341604470, 4143633092, 4341604471, 4143633094, 4143632588], "tags": {"amenity": "place_of_worship", "building": "yes", "name": "Iglesia de Dios", "religion": "christian", "source": "Reconocimiento cartogr\u00e1fico de campo 2016 por KG"}}, {"type": "way", "id": 436312648, "nodes": [4341834276, 4341834277, 4341834278, 4341834279, 4341834280, 4341834281, 4341834276], "tags": {"amenity": "place_of_worship", "building": "yes", "name": "Parroquia San Juan Mar\u00eda Vianney", "religion": "christian", "source": "http://www.arzobispadodelima.org/", "source_1": "Reconocimiento cartogr\u00e1fico de campo 2016 por KG", "wheelchair": "limited", "wheelchair:description": "No ofrecen ba\u00f1os a nadie"}}, {"type": "way", "id": 436924423, "nodes": [4347743543, 4347743544, 4347743545, 4347743546, 4347743547, 4347743548, 4347743549, 4347743550, 4347743551, 4347743552, 4347743543], "tags": {"addr:city": "Magdalena del Mar", "addr:postcode": "15076", "addr:street": "Avenida Antonio Miro Quesada", "amenity": "place_of_worship", "building": "church", "denomination": "mormon", "name": "La Iglesia de Jesucristo de los Santos de los \u00daltimos D\u00edas", "religion": "christian", "source": "Reconocimiento cartogr\u00e1fico de campo 2016 por KG", "wheelchair": "limited", "wheelchair:description": "No ofrecen ba\u00f1os a nadie"}}, {"type": "way", "id": 436928168, "nodes": [4347774924, 4347774925, 4347774926, 4347774927, 4347774924], "tags": {"addr:city": "Magdalena del Mar", "addr:housenumber": "815", "addr:street": "Victor Larco Herrera", "amenity": "place_of_worship", "building": "yes", "fixme": "name", "name": "Templo Cristo Vive", "religion": "christian", "source": "Reconocimiento cartogr\u00e1fico de campo 2016 por KG"}}]}