{"version": 0.6, "generator": "Overpass API 0.7.62.1 084b4234", "osm3s": {"timestamp_osm_base": "2024-06-07T04:10:53Z", "copyright": "The data included in this document is from www.openstreetmap.org. The data is made available under ODbL."}, "elements": [{"type": "node", "id": 1639104065, "lat": -12.0847193, "lon": -77.0443942, "tags": {"amenity": "place_of_worship", "name": "Sanctuario de Nuestra Se\u00f1ora del Sagrado Corazon", "religion": "christian"}}, {"type": "node", "id": 3620430015, "lat": -12.0854754, "lon": -77.0336629, "tags": {"addr:city": "Lince", "addr:street": "Jir\u00f3n Risso", "amenity": "place_of_worship", "name": "Comunidad Cristiana Agua Viva", "religion": "christian", "website": "http://www.ccaguaviva.com/press/"}}, {"type": "node", "id": 4004730627, "lat": -12.0874223, "lon": -77.0346653}, {"type": "node", "id": 4004730628, "lat": -12.0876861, "lon": -77.0346296}, {"type": "node", "id": 4004730629, "lat": -12.0876313, "lon": -77.0342048}, {"type": "node", "id": 4004730630, "lat": -12.0873674, "lon": -77.0342404}, {"type": "node", "id": 4015867544, "lat": -12.0907119, "lon": -77.0263346}, {"type": "node", "id": 4015867547, "lat": -12.0910282, "lon": -77.026299}, {"type": "node", "id": 4039158938, "lat": -12.0823924, "lon": -77.032124}, {"type": "node", "id": 4039158939, "lat": -12.0824491, "lon": -77.0321221}, {"type": "node", "id": 4039158940, "lat": -12.0824571, "lon": -77.0321543}, {"type": "node", "id": 4039158941, "lat": -12.0824869, "lon": -77.0321737}, {"type": "node", "id": 4039158942, "lat": -12.0825264, "lon": -77.0321628}, {"type": "node", "id": 4039158943, "lat": -12.0825264, "lon": -77.0321333}, {"type": "node", "id": 4039158944, "lat": -12.0825378, "lon": -77.0321056}, {"type": "node", "id": 4039158945, "lat": -12.0825875, "lon": -77.0320983}, {"type": "node", "id": 4039158946, "lat": -12.0825437, "lon": -77.031767}, {"type": "node", "id": 4039158947, "lat": -12.082348, "lon": -77.0317963}, {"type": "node", "id": 4337438761, "lat": -12.0909397, "lon": -77.0264978}, {"type": "node", "id": 4337438762, "lat": -12.0910936, "lon": -77.0264773}, {"type": "node", "id": 4337438763, "lat": -12.0910702, "lon": -77.0262943}, {"type": "node", "id": 4341524564, "lat": -12.0832819, "lon": -77.0367342}, {"type": "node", "id": 4341524565, "lat": -12.0837387, "lon": -77.0366666}, {"type": "node", "id": 4341524566, "lat": -12.0837143, "lon": -77.0364976}, {"type": "node", "id": 4341524567, "lat": -12.0832584, "lon": -77.0365652}, {"type": "node", "id": 4341579875, "lat": -12.0864798, "lon": -77.0391957}, {"type": "node", "id": 4341579876, "lat": -12.0865437, "lon": -77.0392146}, {"type": "node", "id": 4341579877, "lat": -12.0865841, "lon": -77.0392181}, {"type": "node", "id": 4341579878, "lat": -12.0866228, "lon": -77.0392163}, {"type": "node", "id": 4341579879, "lat": -12.0866599, "lon": -77.0391768}, {"type": "node", "id": 4341579880, "lat": -12.0866784, "lon": -77.0391561}, {"type": "node", "id": 4341579881, "lat": -12.0866531, "lon": -77.0391303}, {"type": "node", "id": 4341579882, "lat": -12.0866548, "lon": -77.0388704}, {"type": "node", "id": 4341579883, "lat": -12.086643, "lon": -77.0388222}, {"type": "node", "id": 4341579884, "lat": -12.0865707, "lon": -77.0387568}, {"type": "node", "id": 4341579885, "lat": -12.0864714, "lon": -77.0387654}, {"type": "node", "id": 4341579886, "lat": -12.0864444, "lon": -77.0387895}, {"type": "node", "id": 4341579887, "lat": -12.0864209, "lon": -77.0388291}, {"type": "node", "id": 4341579888, "lat": -12.0864175, "lon": -77.0388618}, {"type": "node", "id": 4341584389, "lat": -12.086622, "lon": -77.0387834}, {"type": "node", "id": 4343651757, "lat": -12.0813402, "lon": -77.0294919}, {"type": "node", "id": 4343651758, "lat": -12.0814496, "lon": -77.0294767}, {"type": "node", "id": 4343651759, "lat": -12.0814135, "lon": -77.0292051}, {"type": "node", "id": 4343651760, "lat": -12.0813041, "lon": -77.0292203}, {"type": "node", "id": 4343693212, "lat": -12.0819033, "lon": -77.0342505}, {"type": "node", "id": 4343693213, "lat": -12.0819943, "lon": -77.0342369}, {"type": "node", "id": 4343693214, "lat": -12.0819643, "lon": -77.034028}, {"type": "node", "id": 4343693215, "lat": -12.0818734, "lon": -77.0340416}, {"type": "node", "id": 4344605664, "lat": -12.0815828, "lon": -77.0321348}, {"type": "node", "id": 4344605665, "lat": -12.0817308, "lon": -77.0321125}, {"type": "node", "id": 4344605666, "lat": -12.0816942, "lon": -77.0318597}, {"type": "node", "id": 4344605667, "lat": -12.0815714, "lon": -77.0318782}, {"type": "node", "id": 4344605668, "lat": -12.0815492, "lon": -77.0319023}, {"type": "node", "id": 4344769632, "lat": -12.0819872, "lon": -77.0358812, "tags": {"addr:housenumber": "2201", "addr:street": "Avenida Alvarez de Arenales", "amenity": "place_of_worship", "name": "Iglesia Cristiana Manmin", "religion": "christian", "source": "Reconocimiento cartogr\u00e1fico de campo 2016 por KG"}}, {"type": "node", "id": 4554119479, "lat": -12.0828165, "lon": -77.036803}, {"type": "node", "id": 4554119480, "lat": -12.0832617, "lon": -77.0367282}, {"type": "node", "id": 4554119481, "lat": -12.083209, "lon": -77.0363759}, {"type": "node", "id": 4554119482, "lat": -12.0827613, "lon": -77.0364387}, {"type": "node", "id": 4607188680, "lat": -12.0891701, "lon": -77.0370815}, {"type": "node", "id": 4607188681, "lat": -12.0894682, "lon": -77.0370286}, {"type": "node", "id": 4607188682, "lat": -12.0894072, "lon": -77.0366698}, {"type": "node", "id": 4607188683, "lat": -12.0891044, "lon": -77.0367274}, {"type": "node", "id": 5212913145, "lat": -12.0907339, "lon": -77.0265311}, {"type": "node", "id": 5941277985, "lat": -12.0802102, "lon": -77.0377638, "tags": {"addr:city": "Jes\u00fas Mar\u00eda", "addr:housenumber": "1524", "addr:postcode": "15073", "addr:street": "Jir\u00f3n Mariscal Miller", "amenity": "place_of_worship", "name": "OMP Obras Misionales Pontificias", "website": "https://omp-peru.org/"}}, {"type": "way", "id": 397696561, "nodes": [4004730627, 4004730628, 4004730629, 4004730630, 4004730627], "tags": {"addr:city": "Lima", "addr:district": "Lince", "addr:housenumber": "2356", "addr:street": "Avenida Arequipa", "amenity": "place_of_worship", "building": "yes", "contact:facebook": "https://www.facebook.com/alianzalince/", "email": "iglesia@alianzalince.org", "name": "Iglesia Alianza Cristiana y Misionera de Lince", "phone": "+51 1 4701515", "religion": "christian", "website": "http://alianzalince.org"}}, {"type": "way", "id": 401494459, "nodes": [4039158938, 4039158939, 4039158940, 4039158941, 4039158942, 4039158943, 4039158944, 4039158945, 4039158946, 4039158947, 4039158938], "tags": {"addr:city": "Lince", "addr:street": "Avenida Militar", "amenity": "place_of_worship", "building": "yes", "religion": "christian", "source": "Reconocimiento cartogr\u00e1fico de campo 2016 por KG"}}, {"type": "way", "id": 435851341, "nodes": [4337438761, 4337438762, 4337438763, 4015867547, 4015867544, 5212913145, 4337438761], "tags": {"addr:city": "Lima", "addr:district": "San Isidro", "addr:housenumber": "671", "addr:postcode": "15046", "addr:state": "Lima", "addr:street": "Avenida Javier Prado Este", "amenity": "place_of_worship", "building": "yes", "denomination": "protestant", "name": "Emmanuel Iglesia B\u00edblica", "religion": "christian", "source": "Reconocimiento cartogr\u00e1fico de campo 2016 por KG"}}, {"type": "way", "id": 436279372, "nodes": [4341524564, 4341524565, 4341524566, 4341524567, 4341524564], "tags": {"addr:city": "Lince", "addr:street": "Avenida General C\u00e9sar Canevaro", "amenity": "place_of_worship", "building": "yes", "name": "Show de la Fe", "religion": "christian", "source": "Reconocimiento cartogr\u00e1fico de campo 2016 por KG"}}, {"type": "way", "id": 436284936, "nodes": [4341579875, 4341579876, 4341579877, 4341579878, 4341579879, 4341579880, 4341579881, 4341579882, 4341579883, 4341584389, 4341579884, 4341579885, 4341579886, 4341579887, 4341579888, 4341579875], "tags": {"amenity": "place_of_worship", "building": "yes", "name": "Parroquia Santa Rosa de Lima", "religion": "christian", "source": "http://www.arzobispadodelima.org/", "source_1": "Reconocimiento cartogr\u00e1fico de campo 2016 por KG"}}, {"type": "way", "id": 436475290, "nodes": [4343651757, 4343651758, 4343651759, 4343651760, 4343651757], "tags": {"addr:street": "Jir\u00f3n Jos\u00e9 G\u00e1lvez", "amenity": "place_of_worship", "building": "yes", "religion": "christian", "source": "Reconocimiento cartogr\u00e1fico de campo 2016 por KG"}}, {"type": "way", "id": 436479881, "nodes": [4343693212, 4343693213, 4343693214, 4343693215, 4343693212], "tags": {"addr:street": "Avenida Petit Thouars", "amenity": "place_of_worship", "building": "yes", "denomination": "jehovahs_witness", "name": "Sal\u00f3n del Reino de los Testigos de Jehov\u00e1", "religion": "christian", "source": "Reconocimiento cartogr\u00e1fico de campo 2016 por KG"}}, {"type": "way", "id": 436575810, "nodes": [4344605664, 4344605665, 4344605666, 4344605667, 4344605668, 4344605664], "tags": {"addr:city": "Lince", "addr:street": "Avenida Militar", "amenity": "place_of_worship", "building": "yes", "name": "Betania", "religion": "christian", "source": "Reconocimiento cartogr\u00e1fico de campo 2016 por KG"}}, {"type": "way", "id": 459607461, "nodes": [4554119479, 4554119480, 4554119481, 4554119482, 4554119479], "tags": {"amenity": "place_of_worship", "denomination": "mormon", "name": "La Iglesia de Jesucristo de los Santos de los \u00daltimos D\u00edas", "religion": "christian"}}, {"type": "way", "id": 465799367, "nodes": [4607188680, 4607188681, 4607188682, 4607188683, 4607188680], "tags": {"addr:city": "Lince", "addr:housenumber": "455", "addr:street": "Avenida Cesar Vallejo", "amenity": "place_of_worship", "building": "yes", "building:levels": "4", "name": "S\u016bky\u014d Mahikari", "name:es": "Sukyo Mahikari - Dojo Lima", "roof:shape": "pyramidal", "website": "https://sukyomahikari.org.br/es", "wikidata": "Q2118200", "wikimedia_commons": "Category:Sukyo Mahikari", "wikipedia": "es:S\u016bky\u014d Mahikari"}}]}